STARLINK-35488          
1 66254U 25245W   25329.48954727  .00082073  00000+0  14676-2 0  9993
2 66254  53.1612  50.6838 0001531  36.5296 323.5817 15.49321319  5264
STARLINK-35616          
1 66255U 25245X   25329.55371338  .00089554  00000+0  15998-2 0  9992
2 66255  53.1614  50.3736 0001845  44.6597 315.4561 15.49309529  5279
STARLINK-35619          
1 66256U 25245Y   25329.55268397  .00110621  00000+0  19691-2 0  9997
2 66256  53.1613  50.3668 0002269  42.8813 317.2372 15.49306420  5272
STARLINK-35615          
1 66257U 25245Z   25329.55302624  .00086759  00000+0  15510-2 0  9990
2 66257  53.1614  50.3696 0001920  47.0594 313.0576 15.49303169  5278
STARLINK-34650          
1 66258U 25245AA  25329.55338500  .00136494  00000+0  24178-2 0  9995
2 66258  53.1613  50.3708 0001391  66.2367 293.8788 15.49329570  5279
STARLINK-35529          
1 66259U 25245AB  25329.55199529  .00086163  00000+0  15405-2 0  9992
2 66259  53.1610  50.3619 0001585  53.6254 306.4901 15.49303009  5275
STARLINK-35420          
1 66260U 25245AC  25329.55233965  .00079916  00000+0  14305-2 0  9993
2 66260  53.1607  50.3639 0001756  51.5340 308.5826 15.49304645  5274
STARLINK-35536          
1 66261U 25245AD  25329.55165498  .00114610  00000+0  20385-2 0  9995
2 66261  53.1613  50.3598 0002599  38.8636 321.2559 15.49309039  5275
STARLINK-35487          
1 66262U 25245AE  25329.55130847  .00124341  00000+0  22084-2 0  9996
2 66262  53.1612  50.3570 0001549  56.0127 304.1029 15.49307462  5221
STARLINK-35801          
1 66265U 25247A   25329.83335647  .00111473  00000+0  27622-2 0  9992
2 66265  53.1606 317.3080 0001144  98.9949 275.1294 15.39554066  4893
STARLINK-35056          
1 66266U 25247B   25329.83335647  .00111757  00000+0  27692-2 0  9995
2 66266  53.1609 317.3034 0001354  91.7151 284.2640 15.39553317  5171
STARLINK-35550          
1 66267U 25247C   25329.83335647 -.01644208  00000+0 -41862-1 0  9995
2 66267  53.1597 315.8898 0001553  98.5088 249.3929 15.42413117  4846
