CCSDS_OMM_VERS = 2.0
CREATION_DATE  = 
ORIGINATOR     = 

OBJECT_NAME    = STARLINK-35488
OBJECT_ID      = 2025-245W
CENTER_NAME    = EARTH
REF_FRAME      = TEME
TIME_SYSTEM    = UTC
MEAN_ELEMENT_THEORY = SGP/SGP4

EPOCH          = 2025-11-25T11:44:56.884128
MEAN_MOTION    = 15.49321319
ECCENTRICITY   = .0001531
INCLINATION    = 53.1612
RA_OF_ASC_NODE = 50.6838
ARG_OF_PERICENTER = 36.5296
MEAN_ANOMALY   = 323.5817

EPHEMERIS_TYPE = 0
CLASSIFICATION_TYPE = U
NORAD_CAT_ID   = 66254
ELEMENT_SET_NO = 999
REV_AT_EPOCH   = 526
BSTAR          = .14676E-2
MEAN_MOTION_DOT = .82073E-3
MEAN_MOTION_DDOT = 0

CCSDS_OMM_VERS = 2.0
CREATION_DATE  = 
ORIGINATOR     = 

OBJECT_NAME    = STARLINK-35616
OBJECT_ID      = 2025-245X
CENTER_NAME    = EARTH
REF_FRAME      = TEME
TIME_SYSTEM    = UTC
MEAN_ELEMENT_THEORY = SGP/SGP4

EPOCH          = 2025-11-25T13:17:20.836032
MEAN_MOTION    = 15.49309529
ECCENTRICITY   = .0001845
INCLINATION    = 53.1614
RA_OF_ASC_NODE = 50.3736
ARG_OF_PERICENTER = 44.6597
MEAN_ANOMALY   = 315.4561

EPHEMERIS_TYPE = 0
CLASSIFICATION_TYPE = U
NORAD_CAT_ID   = 66255
ELEMENT_SET_NO = 999
REV_AT_EPOCH   = 527
BSTAR          = .15998E-2
MEAN_MOTION_DOT = .89554E-3
MEAN_MOTION_DDOT = 0

CCSDS_OMM_VERS = 2.0
CREATION_DATE  = 
ORIGINATOR     = 

OBJECT_NAME    = STARLINK-35619
OBJECT_ID      = 2025-245Y
CENTER_NAME    = EARTH
REF_FRAME      = TEME
TIME_SYSTEM    = UTC
MEAN_ELEMENT_THEORY = SGP/SGP4

EPOCH          = 2025-11-25T13:15:51.895008
MEAN_MOTION    = 15.49306420
ECCENTRICITY   = .0002269
INCLINATION    = 53.1613
RA_OF_ASC_NODE = 50.3668
ARG_OF_PERICENTER = 42.8813
MEAN_ANOMALY   = 317.2372

EPHEMERIS_TYPE = 0
CLASSIFICATION_TYPE = U
NORAD_CAT_ID   = 66256
ELEMENT_SET_NO = 999
REV_AT_EPOCH   = 527
BSTAR          = .19691E-2
MEAN_MOTION_DOT = .110621E-2
MEAN_MOTION_DDOT = 0

CCSDS_OMM_VERS = 2.0
CREATION_DATE  = 
ORIGINATOR     = 

OBJECT_NAME    = STARLINK-35615
OBJECT_ID      = 2025-245Z
CENTER_NAME    = EARTH
REF_FRAME      = TEME
TIME_SYSTEM    = UTC
MEAN_ELEMENT_THEORY = SGP/SGP4

EPOCH          = 2025-11-25T13:16:21.467136
MEAN_MOTION    = 15.49303169
ECCENTRICITY   = .000192
INCLINATION    = 53.1614
RA_OF_ASC_NODE = 50.3696
ARG_OF_PERICENTER = 47.0594
MEAN_ANOMALY   = 313.0576

EPHEMERIS_TYPE = 0
CLASSIFICATION_TYPE = U
NORAD_CAT_ID   = 66257
ELEMENT_SET_NO = 999
REV_AT_EPOCH   = 527
BSTAR          = .1551E-2
MEAN_MOTION_DOT = .86759E-3
MEAN_MOTION_DDOT = 0

CCSDS_OMM_VERS = 2.0
CREATION_DATE  = 
ORIGINATOR     = 

OBJECT_NAME    = STARLINK-34650
OBJECT_ID      = 2025-245AA
CENTER_NAME    = EARTH
REF_FRAME      = TEME
TIME_SYSTEM    = UTC
MEAN_ELEMENT_THEORY = SGP/SGP4

EPOCH          = 2025-11-25T13:16:52.464000
MEAN_MOTION    = 15.49329570
ECCENTRICITY   = .0001391
INCLINATION    = 53.1613
RA_OF_ASC_NODE = 50.3708
ARG_OF_PERICENTER = 66.2367
MEAN_ANOMALY   = 293.8788

EPHEMERIS_TYPE = 0
CLASSIFICATION_TYPE = U
NORAD_CAT_ID   = 66258
ELEMENT_SET_NO = 999
REV_AT_EPOCH   = 527
BSTAR          = .24178E-2
MEAN_MOTION_DOT = .136494E-2
MEAN_MOTION_DDOT = 0

CCSDS_OMM_VERS = 2.0
CREATION_DATE  = 
ORIGINATOR     = 

OBJECT_NAME    = STARLINK-35529
OBJECT_ID      = 2025-245AB
CENTER_NAME    = EARTH
REF_FRAME      = TEME
TIME_SYSTEM    = UTC
MEAN_ELEMENT_THEORY = SGP/SGP4

EPOCH          = 2025-11-25T13:14:52.393056
MEAN_MOTION    = 15.49303009
ECCENTRICITY   = .0001585
INCLINATION    = 53.1610
RA_OF_ASC_NODE = 50.3619
ARG_OF_PERICENTER = 53.6254
MEAN_ANOMALY   = 306.4901

EPHEMERIS_TYPE = 0
CLASSIFICATION_TYPE = U
NORAD_CAT_ID   = 66259
ELEMENT_SET_NO = 999
REV_AT_EPOCH   = 527
BSTAR          = .15405E-2
MEAN_MOTION_DOT = .86163E-3
MEAN_MOTION_DDOT = 0

CCSDS_OMM_VERS = 2.0
CREATION_DATE  = 
ORIGINATOR     = 

OBJECT_NAME    = STARLINK-35420
OBJECT_ID      = 2025-245AC
CENTER_NAME    = EARTH
REF_FRAME      = TEME
TIME_SYSTEM    = UTC
MEAN_ELEMENT_THEORY = SGP/SGP4

EPOCH          = 2025-11-25T13:15:22.145760
MEAN_MOTION    = 15.49304645
ECCENTRICITY   = .0001756
INCLINATION    = 53.1607
RA_OF_ASC_NODE = 50.3639
ARG_OF_PERICENTER = 51.5340
MEAN_ANOMALY   = 308.5826

EPHEMERIS_TYPE = 0
CLASSIFICATION_TYPE = U
NORAD_CAT_ID   = 66260
ELEMENT_SET_NO = 999
REV_AT_EPOCH   = 527
BSTAR          = .14305E-2
MEAN_MOTION_DOT = .79916E-3
MEAN_MOTION_DDOT = 0

CCSDS_OMM_VERS = 2.0
CREATION_DATE  = 
ORIGINATOR     = 

OBJECT_NAME    = STARLINK-35536
OBJECT_ID      = 2025-245AD
CENTER_NAME    = EARTH
REF_FRAME      = TEME
TIME_SYSTEM    = UTC
MEAN_ELEMENT_THEORY = SGP/SGP4

EPOCH          = 2025-11-25T13:14:22.990272
MEAN_MOTION    = 15.49309039
ECCENTRICITY   = .0002599
INCLINATION    = 53.1613
RA_OF_ASC_NODE = 50.3598
ARG_OF_PERICENTER = 38.8636
MEAN_ANOMALY   = 321.2559

EPHEMERIS_TYPE = 0
CLASSIFICATION_TYPE = U
NORAD_CAT_ID   = 66261
ELEMENT_SET_NO = 999
REV_AT_EPOCH   = 527
BSTAR          = .20385E-2
MEAN_MOTION_DOT = .11461E-2
MEAN_MOTION_DDOT = 0

CCSDS_OMM_VERS = 2.0
CREATION_DATE  = 
ORIGINATOR     = 

OBJECT_NAME    = STARLINK-35487
OBJECT_ID      = 2025-245AE
CENTER_NAME    = EARTH
REF_FRAME      = TEME
TIME_SYSTEM    = UTC
MEAN_ELEMENT_THEORY = SGP/SGP4

EPOCH          = 2025-11-25T13:13:53.051808
MEAN_MOTION    = 15.49307462
ECCENTRICITY   = .0001549
INCLINATION    = 53.1612
RA_OF_ASC_NODE = 50.3570
ARG_OF_PERICENTER = 56.0127
MEAN_ANOMALY   = 304.1029

EPHEMERIS_TYPE = 0
CLASSIFICATION_TYPE = U
NORAD_CAT_ID   = 66262
ELEMENT_SET_NO = 999
REV_AT_EPOCH   = 522
BSTAR          = .22084E-2
MEAN_MOTION_DOT = .124341E-2
MEAN_MOTION_DDOT = 0

CCSDS_OMM_VERS = 2.0
CREATION_DATE  = 
ORIGINATOR     = 

OBJECT_NAME    = STARLINK-35801
OBJECT_ID      = 2025-247A
CENTER_NAME    = EARTH
REF_FRAME      = TEME
TIME_SYSTEM    = UTC
MEAN_ELEMENT_THEORY = SGP/SGP4

EPOCH          = 2025-11-25T20:00:01.999008
MEAN_MOTION    = 15.39554066
ECCENTRICITY   = .0001144
INCLINATION    = 53.1606
RA_OF_ASC_NODE = 317.3080
ARG_OF_PERICENTER = 98.9949
MEAN_ANOMALY   = 275.1294

EPHEMERIS_TYPE = 0
CLASSIFICATION_TYPE = U
NORAD_CAT_ID   = 66265
ELEMENT_SET_NO = 999
REV_AT_EPOCH   = 489
BSTAR          = .27622E-2
MEAN_MOTION_DOT = .111473E-2
MEAN_MOTION_DDOT = 0

CCSDS_OMM_VERS = 2.0
CREATION_DATE  = 
ORIGINATOR     = 

OBJECT_NAME    = STARLINK-35056
OBJECT_ID      = 2025-247B
CENTER_NAME    = EARTH
REF_FRAME      = TEME
TIME_SYSTEM    = UTC
MEAN_ELEMENT_THEORY = SGP/SGP4

EPOCH          = 2025-11-25T20:00:01.999008
MEAN_MOTION    = 15.39553317
ECCENTRICITY   = .0001354
INCLINATION    = 53.1609
RA_OF_ASC_NODE = 317.3034
ARG_OF_PERICENTER = 91.7151
MEAN_ANOMALY   = 284.2640

EPHEMERIS_TYPE = 0
CLASSIFICATION_TYPE = U
NORAD_CAT_ID   = 66266
ELEMENT_SET_NO = 999
REV_AT_EPOCH   = 517
BSTAR          = .27692E-2
MEAN_MOTION_DOT = .111757E-2
MEAN_MOTION_DDOT = 0

CCSDS_OMM_VERS = 2.0
CREATION_DATE  = 
ORIGINATOR     = 

OBJECT_NAME    = STARLINK-35550
OBJECT_ID      = 2025-247C
CENTER_NAME    = EARTH
REF_FRAME      = TEME
TIME_SYSTEM    = UTC
MEAN_ELEMENT_THEORY = SGP/SGP4

EPOCH          = 2025-11-25T20:00:01.999008
MEAN_MOTION    = 15.42413117
ECCENTRICITY   = .0001553
INCLINATION    = 53.1597
RA_OF_ASC_NODE = 315.8898
ARG_OF_PERICENTER = 98.5088
MEAN_ANOMALY   = 249.3929

EPHEMERIS_TYPE = 0
CLASSIFICATION_TYPE = U
NORAD_CAT_ID   = 66267
ELEMENT_SET_NO = 999
REV_AT_EPOCH   = 484
BSTAR          = -.41862E-1
MEAN_MOTION_DOT = -.1644208E-1
MEAN_MOTION_DDOT = 0

